IRIDIUM 144             
1 43249U 18030A   23322.07653896  .00000151  00000+0  46798-4 0  9994
2 43249  86.3942 324.1623 0002317  91.4485 268.6976 14.34214960295128
IRIDIUM 149             
1 43250U 18030B   23321.94334264  .00000079  00000+0  21276-4 0  9999
2 43250  86.3940 324.1955 0002511  91.0035 269.1449 14.34217128295107
IRIDIUM 157             
1 43251U 18030C   23321.75304721  .00000150  00000+0  46409-4 0  9999
2 43251  86.3943 324.3073 0001993  89.5423 270.6001 14.34217903295056
IRIDIUM 140             
1 43252U 18030D   23321.77208508  .00000167  00000+0  52670-4 0  9993
2 43252  86.3943 324.3141 0002388  98.4300 261.7166 14.34216598295114
IRIDIUM 145             
1 43253U 18030E   23321.75940718  .00000364  00000+0  12276-3 0  9994
2 43253  86.3940 324.2939 0002578  91.4953 268.6539 14.34217132295041
IRIDIUM 146             
1 43254U 18030F   23322.08920694  .00000149  00000+0  46293-4 0  9991
2 43254  86.3942 324.1711 0002537  89.5700 270.5786 14.34217795295102
IRIDIUM 148             
1 43255U 18030G   23321.70866976  .00000157  00000+0  49071-4 0  9998
2 43255  86.3944 324.3595 0002439  84.5469 275.6005 14.34214818295085
IRIDIUM 142             
1 43256U 18030H   23321.95602760  .00000155  00000+0  48122-4 0  9999
2 43256  86.3940 324.1793 0002386  86.2789 273.8680 14.34217110295082
